{
    "links": {
        "self": "http://www.neowsapp.com/rest/v1/neo/54053736?api_key=iIulBulltgU6a56xZRHN4H3l9WmuAYTsLGpBGhQ2"
    },
    "id": "54053736",
    "neo_reference_id": "54053736",
    "name": "(2020 RO)",
    "designation": "2020 RO",
    "nasa_jpl_url": "http://ssd.jpl.nasa.gov/sbdb.cgi?sstr=54053736",
    "absolute_magnitude_h": 23.278,
    "estimated_diameter": {
        "kilometers": {
            "estimated_diameter_min": 0.0587428451,
            "estimated_diameter_max": 0.1313529947
        },
        "meters": {
            "estimated_diameter_min": 58.7428450551,
            "estimated_diameter_max": 131.352994735
        },
        "miles": {
            "estimated_diameter_min": 0.0365011004,
            "estimated_diameter_max": 0.0816189417
        },
        "feet": {
            "estimated_diameter_min": 192.7258757707,
            "estimated_diameter_max": 430.9481592465
        }
    },
    "is_potentially_hazardous_asteroid": false,
    "close_approach_data": [
        {
            "close_approach_date": "2013-08-21",
            "close_approach_date_full": "2013-Aug-21 23:47",
            "epoch_date_close_approach": 1377128820000,
            "relative_velocity": {
                "kilometers_per_second": "25.4318418469",
                "kilometers_per_hour": "91554.6306489545",
                "miles_per_hour": "56888.4870274017"
            },
            "miss_distance": {
                "astronomical": "0.4457170549",
                "lunar": "173.3839343561",
                "kilometers": "66678322.035713063",
                "miles": "41431988.0861757494"
            },
            "orbiting_body": "Earth"
        },
        {
            "close_approach_date": "2020-09-25",
            "close_approach_date_full": "2020-Sep-25 00:10",
            "epoch_date_close_approach": 1600992600000,
            "relative_velocity": {
                "kilometers_per_second": "11.84393455",
                "kilometers_per_hour": "42638.1643798718",
                "miles_per_hour": "26493.6971948154"
            },
            "miss_distance": {
                "astronomical": "0.0391090576",
                "lunar": "15.2134234064",
                "kilometers": "5850631.714667312",
                "miles": "3635413.9711084256"
            },
            "orbiting_body": "Earth"
        },
        {
            "close_approach_date": "2120-01-22",
            "close_approach_date_full": "2120-Jan-22 09:25",
            "epoch_date_close_approach": 4735358700000,
            "relative_velocity": {
                "kilometers_per_second": "25.0647099564",
                "kilometers_per_hour": "90232.9558431224",
                "miles_per_hour": "56067.2497015224"
            },
            "miss_distance": {
                "astronomical": "0.4400878176",
                "lunar": "171.1941610464",
                "kilometers": "65836200.125908512",
                "miles": "40908717.7957889856"
            },
            "orbiting_body": "Earth"
        },
        {
            "close_approach_date": "2125-05-08",
            "close_approach_date_full": "2125-May-08 13:41",
            "epoch_date_close_approach": 4902385260000,
            "relative_velocity": {
                "kilometers_per_second": "3.1051973557",
                "kilometers_per_hour": "11178.7104806264",
                "miles_per_hour": "6946.0159650314"
            },
            "miss_distance": {
                "astronomical": "1.7301842152",
                "lunar": "673.0416597128",
                "kilometers": "258831873.301541624",
                "miles": "160830668.2523934512"
            },
            "orbiting_body": "Juptr"
        }
    ],
    "orbital_data": {
        "orbit_id": "9",
        "orbit_determination_date": "2020-09-18 07:33:29",
        "first_observation_date": "2020-08-19",
        "last_observation_date": "2020-09-17",
        "data_arc_in_days": 29,
        "observations_used": 44,
        "orbit_uncertainty": "7",
        "minimum_orbit_intersection": ".0386757",
        "jupiter_tisserand_invariant": "3.290",
        "epoch_osculation": "2459000.5",
        "eccentricity": ".6119562059844316",
        "semi_major_axis": "2.324992062125541",
        "inclination": "5.678220734806321",
        "ascending_node_longitude": "159.5872614284408",
        "orbital_period": "1294.883326077252",
        "perihelion_distance": ".9021987408432752",
        "perihelion_argument": "246.524392038847",
        "aphelion_distance": "3.747785383407807",
        "perihelion_time": "2459150.261938570144",
        "mean_anomaly": "318.3635862787879",
        "mean_motion": ".2780173261560112",
        "equinox": "J2000",
        "orbit_class": {
            "orbit_class_type": "APO",
            "orbit_class_description": "Near-Earth asteroid orbits which cross the Earth’s orbit similar to that of 1862 Apollo",
            "orbit_class_range": "a (semi-major axis) > 1.0 AU; q (perihelion) < 1.017 AU"
        }
    },
    "is_sentry_object": false
}